[{"OBJECT_NAME":"STARLINK-31726","OBJECT_ID":"2024-090K","EPOCH":"2026-03-09T07:07:35.009472","MEAN_MOTION":15.27579545,"ECCENTRICITY":5.785e-5,"INCLINATION":43.0034,"RA_OF_ASC_NODE":185.4077,"ARG_OF_PERICENTER":225.4163,"MEAN_ANOMALY":134.6642,"EPHEMERIS_TYPE":0,"CLASSIFICATION_TYPE":"U","NORAD_CAT_ID":59739,"ELEMENT_SET_NO":999,"REV_AT_EPOCH":10338,"BSTAR":-4.8632969e-5,"MEAN_MOTION_DOT":-1.6e-5,"MEAN_MOTION_DDOT":0},{"OBJECT_NAME":"OBJECT P","OBJECT_ID":"2025-155P","EPOCH":"2026-03-09T22:15:55.475424","MEAN_MOTION":15.2544775,"ECCENTRICITY":0.00080527,"INCLINATION":97.4496,"RA_OF_ASC_NODE":37.0295,"ARG_OF_PERICENTER":153.0691,"MEAN_ANOMALY":207.0966,"EPHEMERIS_TYPE":0,"CLASSIFICATION_TYPE":"U","NORAD_CAT_ID":64889,"ELEMENT_SET_NO":999,"REV_AT_EPOCH":6557,"BSTAR":0.00031377111,"MEAN_MOTION_DOT":7.871e-5,"MEAN_MOTION_DDOT":0}]
